[{"OBJECT_NAME":"RANGE-A","OBJECT_ID":"2018-099R","EPOCH":"2026-03-09T16:56:29.908608","MEAN_MOTION":15.1245864,"ECCENTRICITY":0.00096737,"INCLINATION":97.4107,"RA_OF_ASC_NODE":114.1927,"ARG_OF_PERICENTER":340.4473,"MEAN_ANOMALY":19.6386,"EPHEMERIS_TYPE":0,"CLASSIFICATION_TYPE":"U","NORAD_CAT_ID":43773,"ELEMENT_SET_NO":999,"REV_AT_EPOCH":39745,"BSTAR":0.00032165687,"MEAN_MOTION_DOT":5.536e-5,"MEAN_MOTION_DDOT":0},{"OBJECT_NAME":"STARLINK-4781","OBJECT_ID":"2022-114AV","EPOCH":"2026-03-09T21:57:19.428480","MEAN_MOTION":15.08841404,"ECCENTRICITY":0.0001384,"INCLINATION":53.2173,"RA_OF_ASC_NODE":283.2726,"ARG_OF_PERICENTER":85.0547,"MEAN_ANOMALY":275.0603,"EPHEMERIS_TYPE":0,"CLASSIFICATION_TYPE":"U","NORAD_CAT_ID":53861,"ELEMENT_SET_NO":999,"REV_AT_EPOCH":19314,"BSTAR":1.2202575e-5,"MEAN_MOTION_DOT":-9.4e-7,"MEAN_MOTION_DDOT":0}]
